STARLINK-31833          
1 59733U 24090D   26068.33291212  .00007666  00000+0  28787-3 0  9996
2 59733  42.9981 185.6756 0000965 272.3571  87.7170 15.27570677103389
BANDWAGON-2 OBJECT D    
1 62380U 24247D   26068.52261193  .00011259  00000+0  40119-3 0  9994
2 62380  44.9954 115.6710 0003488 351.1453   8.9368 15.29076102 67732
